SES-20                  
1 53960U 22123A   26156.27290120 -.00000089  00000+0  00000+0 0  9992
2 53960   0.0392  78.0991 0002170  14.8910 155.8644  1.00269929 13416
SES-21                  
1 53961U 22123B   26156.15504227  .00000082  00000+0  00000+0 0  9998
2 53961   0.0274  31.7901 0000890  38.1900 108.4159  1.00270014  7097
GALAXY 33 (G-33)        
1 54026U 22128A   26156.27425594  .00000091  00000+0  00000+0 0  9998
2 54026   0.0176  38.5509 0001990  35.7610 145.1426  1.00271854 13627
GALAXY 34 (G-34)        
1 54027U 22128B   26155.96729912  .00000071  00000+0  00000+0 0  9993
2 54027   0.0137   6.5753 0001970  86.4583  19.6129  1.00273793 13798
ANGOSAT 2               
1 54033U 22131A   26154.57147179  .00000147  00000+0  00000+0 0  9993
2 54033   0.0320  77.4861 0001675  43.8281 359.4453  1.00272126 13345
EUTELSAT HOTBIRD 13F    
1 54048U 22134A   26156.18655773  .00000099  00000+0  00000+0 0  9991
2 54048   0.0464 291.9997 0001923  73.7721 328.0206  1.00271418 13251
LDPE-2                  
1 54219U 22144A   26155.53127598  .00000132  00000+0  00000+0 0  9997
2 54219   5.5824  63.7543 0001683  89.4691 121.7668  1.00527893 11716
EUTELSAT HOTBIRD 13G    
1 54225U 22146A   26156.06676943  .00000099  00000+0  00000+0 0  9990
2 54225   0.0454 231.8999 0002151 304.2717 114.3698  1.00271107  7342
ZHONGXING-19            
1 54230U 22148A   26156.16779860 -.00000069  00000+0  00000+0 0  9999
2 54230   0.0304 274.7015 0002367 183.6689  18.8299  1.00270450 13266
GALAXY 31 (G-31)        
1 54243U 22153A   26156.25403858  .00000025  00000+0  00000+0 0  9991
2 54243   0.0150  62.4856 0001466  12.3444 149.3142  1.00272137  7017
GALAXY 32 (G-32)        
1 54244U 22153B   26154.83402102 -.00000162  00000+0  00000+0 0  9998
2 54244   0.0097 353.7552 0002383  46.7034  61.0732  1.00270822 13013
EUTELSAT 10B            
1 54259U 22157A   26155.99484596  .00000080  00000+0  00000+0 0  9991
2 54259   0.0641 101.7982 0002458   9.9155 149.8574  1.00270897 12908
GALAXY 35 (G-35)        
1 54741U 22170A   26156.25958527 -.00000150  00000+0  00000+0 0  9991
2 54741   0.0138   8.5361 0002248  69.0413 176.4738  1.00272351 12771
GALAXY 36 (G-36)        
1 54742U 22170B   26156.04415038 -.00000173  00000+0  00000+0 0  9999
2 54742   0.0166 245.1596 0002876 195.6515  99.5737  1.00272495 12658
METEOSAT-12 (MTG-I1)    
1 54743U 22170C   26156.27791356  .00000004  00000+0  00000+0 0  9997
2 54743   0.7250  20.9289 0003561  69.7526 262.6569  1.00271490 12855
SHIJIAN-23 (SJ-23)      
1 55131U 23002A   26154.66930644 -.00000165  00000+0  00000+0 0  9999
2 55131   3.6827  78.4813 0003973 278.4105 293.1700  1.00091075 12371
APSTAR-6E               
1 55239U 23005A   26154.80741422 -.00000306  00000+0  00000+0 0  9998
2 55239   0.0296 251.9045 0001095 264.1846 160.8472  1.00269237 18552
USA 342                 
1 55263U 23008A   26155.14198786  .00000150  00000+0  00000+0 0  9991
2 55263   0.0087 134.3874 0000373 135.9762  57.1445  1.00271932 12389
LDPE-3A                 
1 55264U 23008B   26156.26595351 -.00000166  00000+0  00000+0 0  9993
2 55264   2.3162  81.8104 0001219  42.6987 164.2184  0.99148240 11699
ELEKTRO-L 4             
1 55506U 23016A   26155.83592350 -.00000046  00000+0  00000+0 0  9996
2 55506   0.0742 185.2252 0000698 355.5624 179.2172  1.00272471 12213
AMAZONAS NEXUS          
1 55508U 23017A   26155.69449756 -.00000270  00000+0  00000+0 0  9993
2 55508   0.0364  32.0326 0005424  29.5466  20.5956  1.00270829  6924
ZHONGXING-26            
1 55686U 23023A   26156.30285266 -.00000341  00000+0  00000+0 0  9999
2 55686   0.0711  72.6528 0004145   9.0865  46.1491  1.00269832 12114
LUCH-5X (OLYMP-K 2)     
1 55841U 23031A   26154.72656752  .00000045  00000+0  00000+0 0  9997
2 55841   0.0239  54.9081 0000780 159.5695   1.2300  1.00270312 11803
GAOFEN-13 02            
1 55912U 23036A   26155.87960469 -.00000206  00000+0  00000+0 0  9991
2 55912   1.0190 359.5272 0004229 343.4731  15.2472  1.00274289 11961
SES-18                  
1 55970U 23038A   26156.27290120 -.00000089  00000+0  00000+0 0  9991
2 55970   0.0129 298.0758 0000440  69.1469 241.6402  1.00272065 11983
SES-19                  
1 55971U 23038B   26155.96608579  .00000100  00000+0  00000+0 0  9991
2 55971   0.0116  12.3576 0001759  59.3680  34.5780  1.00273023 11977
INTELSAT 40E (IS-40E)   
1 56174U 23052A   26155.61834057 -.00000162  00000+0  00000+0 0  9996
2 56174   0.0148  28.7642 0002125  86.5025 269.4042  1.00272312 11695
VIASAT-3 F1             
1 56370U 23060A   26155.83267419  .00000000  00000+0  00000+0 0  9999
2 56370   0.0232 320.6697 0000920 101.7629  41.6159  1.00267593 11315
ARCTURUS                
1 56371U 23060B   26155.99697312 -.00000051  00000+0  00000+0 0  9993
2 56371   2.7452  80.0883 0002077  41.1603 203.5690  1.00271595 11335
GS-1                    
1 56372U 23060C   26153.72904434 -.00000212  00000+0  00000+0 0  9998
2 56372   2.6897  79.9972 0004018 279.1394 243.6560  1.00278618  7396
BEIDOU-3 G4             
1 56564U 23066A   26156.30579934 -.00000270  00000+0  00000+0 0  9991
2 56564   0.5012 328.3909 0004410 168.2834   7.1698  1.00268362 11271
ARABSAT-7B (BADR-8)     
1 56757U 23075A   26155.99799771  .00000157  00000+0  00000+0 0  9995
2 56757   0.0760  27.4514 0004938 356.5547 254.7235  1.00272522 10995
