OBJECT_NAME,OBJECT_ID,EPOCH,MEAN_MOTION,ECCENTRICITY,INCLINATION,RA_OF_ASC_NODE,ARG_OF_PERICENTER,MEAN_ANOMALY,EPHEMERIS_TYPE,CLASSIFICATION_TYPE,NORAD_CAT_ID,ELEMENT_SET_NO,REV_AT_EPOCH,BSTAR,MEAN_MOTION_DOT,MEAN_MOTION_DDOT
SES-20,2022-123A,2026-06-05T06:32:58.663680,1.00269929,.00021704,0.0392,78.0991,14.8910,155.8644,0,U,53960,999,1341,0,-.89E-6,0
SES-21,2022-123B,2026-06-05T03:43:15.652128,1.00270014,.00008906,0.0274,31.7901,38.1900,108.4159,0,U,53961,999,709,0,.82E-6,0
GALAXY 33 (G-33),2022-128A,2026-06-05T06:34:55.713216,1.00271854,.00019909,0.0176,38.5509,35.7610,145.1426,0,U,54026,999,1362,0,.91E-6,0
GALAXY 34 (G-34),2022-128B,2026-06-04T23:12:54.643968,1.00273793,.00019706,0.0137,6.5753,86.4583,19.6129,0,U,54027,999,1379,0,.71E-6,0
ANGOSAT 2,2022-131A,2026-06-03T13:42:55.162656,1.00272126,.0001675,0.0320,77.4861,43.8281,359.4453,0,U,54033,999,1334,0,.147E-5,0
EUTELSAT HOTBIRD 13F,2022-134A,2026-06-05T04:28:38.587872,1.00271418,.00019231,0.0464,291.9997,73.7721,328.0206,0,U,54048,999,1325,0,.99E-6,0
LDPE-2,2022-144A,2026-06-04T12:45:02.244672,1.00527893,.00016833,5.5824,63.7543,89.4691,121.7668,0,U,54219,999,1171,0,.132E-5,0
EUTELSAT HOTBIRD 13G,2022-146A,2026-06-05T01:36:08.878752,1.00271107,.00021516,0.0454,231.8999,304.2717,114.3698,0,U,54225,999,734,0,.99E-6,0
ZHONGXING-19,2022-148A,2026-06-05T04:01:37.799040,1.00270450,.00023678,0.0304,274.7015,183.6689,18.8299,0,U,54230,999,1326,0,-.69E-6,0
GALAXY 31 (G-31),2022-153A,2026-06-05T06:05:48.933312,1.00272137,.00014662,0.0150,62.4856,12.3444,149.3142,0,U,54243,999,701,0,.25E-6,0
GALAXY 32 (G-32),2022-153B,2026-06-03T20:00:59.416128,1.00270822,.00023838,0.0097,353.7552,46.7034,61.0732,0,U,54244,999,1301,0,-.162E-5,0
EUTELSAT 10B,2022-157A,2026-06-04T23:52:34.690944,1.00270897,.00024584,0.0641,101.7982,9.9155,149.8574,0,U,54259,999,1290,0,.8E-6,0
GALAXY 35 (G-35),2022-170A,2026-06-05T06:13:48.167328,1.00272351,.00022483,0.0138,8.5361,69.0413,176.4738,0,U,54741,999,1277,0,-.15E-5,0
GALAXY 36 (G-36),2022-170B,2026-06-05T01:03:34.592832,1.00272495,.0002876,0.0166,245.1596,195.6515,99.5737,0,U,54742,999,1265,0,-.173E-5,0
METEOSAT-12 (MTG-I1),2022-170C,2026-06-05T06:40:11.731584,1.00271490,.00035612,0.7250,20.9289,69.7526,262.6569,0,U,54743,999,1285,0,.4E-7,0
SHIJIAN-23 (SJ-23),2023-002A,2026-06-03T16:03:48.076416,1.00091075,.0003973,3.6827,78.4813,278.4105,293.1700,0,U,55131,999,1237,0,-.165E-5,0
APSTAR-6E,2023-005A,2026-06-03T19:22:40.588608,1.00269237,.0001095,0.0296,251.9045,264.1846,160.8472,0,U,55239,999,1855,0,-.306E-5,0
USA 342,2023-008A,2026-06-04T03:24:27.751104,1.00271932,.0000373,0.0087,134.3874,135.9762,57.1445,0,U,55263,999,1238,0,.15E-5,0
LDPE-3A,2023-008B,2026-06-05T06:22:58.383264,0.99148240,.00012197,2.3162,81.8104,42.6987,164.2184,0,U,55264,999,1169,0,-.166E-5,0
ELEKTRO-L 4,2023-016A,2026-06-04T20:03:43.790400,1.00272471,.00006982,0.0742,185.2252,355.5624,179.2172,0,U,55506,999,1221,0,-.46E-6,0
AMAZONAS NEXUS,2023-017A,2026-06-04T16:40:04.589184,1.00270829,.00054249,0.0364,32.0326,29.5466,20.5956,0,U,55508,999,692,0,-.27E-5,0
ZHONGXING-26,2023-023A,2026-06-05T07:16:06.469824,1.00269832,.00041451,0.0711,72.6528,9.0865,46.1491,0,U,55686,999,1211,0,-.341E-5,0
LUCH-5X (OLYMP-K 2),2023-031A,2026-06-03T17:26:15.433728,1.00270312,.000078,0.0239,54.9081,159.5695,1.2300,0,U,55841,999,1180,0,.45E-6,0
GAOFEN-13 02,2023-036A,2026-06-04T21:06:37.845216,1.00274289,.0004229,1.0190,359.5272,343.4731,15.2472,0,U,55912,999,1196,0,-.206E-5,0
SES-18,2023-038A,2026-06-05T06:32:58.663680,1.00272065,.00004408,0.0129,298.0758,69.1469,241.6402,0,U,55970,999,1198,0,-.89E-6,0
SES-19,2023-038B,2026-06-04T23:11:09.812256,1.00273023,.00017594,0.0116,12.3576,59.3680,34.5780,0,U,55971,999,1197,0,.1E-5,0
INTELSAT 40E (IS-40E),2023-052A,2026-06-04T14:50:24.625248,1.00272312,.00021256,0.0148,28.7642,86.5025,269.4042,0,U,56174,999,1169,0,-.162E-5,0
VIASAT-3 F1,2023-060A,2026-06-04T19:59:03.050016,1.00267593,.000092,0.0232,320.6697,101.7629,41.6159,0,U,56370,999,1131,0,0,0
ARCTURUS,2023-060B,2026-06-04T23:55:38.477568,1.00271595,.00020772,2.7452,80.0883,41.1603,203.5690,0,U,56371,999,1133,0,-.51E-6,0
GS-1,2023-060C,2026-06-02T17:29:49.430976,1.00278618,.00040182,2.6897,79.9972,279.1394,243.6560,0,U,56372,999,739,0,-.212E-5,0
BEIDOU-3 G4,2023-066A,2026-06-05T07:20:21.062976,1.00268362,.00044101,0.5012,328.3909,168.2834,7.1698,0,U,56564,999,1127,0,-.27E-5,0
ARABSAT-7B (BADR-8),2023-075A,2026-06-04T23:57:07.002144,1.00272522,.00049385,0.0760,27.4514,356.5547,254.7235,0,U,56757,999,1099,0,.157E-5,0
